SENTINEL-3A             
1 41335U 16011A   22229.56442836  .00000060  00000+0  42761-4 0  9999
2 41335  98.6189 295.9661 0001180  99.7990 260.3323 14.26740744338484
ZIYUAN 3-2 (ZY 3-2)     
1 41556U 16033A   22229.77547707  .00003533  00000+0  16087-3 0  9993
2 41556  97.5323 298.5155 0005444  93.7458  54.7649 15.21348202345229
NUSAT-1 (FRESCO)        
1 41557U 16033B   22229.50951595  .00010812  00000+0  31084-3 0  9991
2 41557  97.3907 327.3695 0011398 152.5902 264.2046 15.35920331346751
NUSAT-2 (BATATA)        
1 41558U 16033C   22229.73815274  .00010514  00000+0  28472-3 0  9996
2 41558  97.4113 333.6421 0011127 141.8316   1.9445 15.37799084347064
CARTOSAT-2C             
1 41599U 16040A   22229.20351241  .00015948  00000+0  75881-3 0  9992
2 41599  97.4805 288.2608 0013155 338.1622 111.4678 15.19177411341156
SKYSAT-C1               
1 41601U 16040C   22229.18341504  .00006840  00000+0  18452-3 0  9996
2 41601  97.1514 303.0423 0002368 116.1799 243.9690 15.38099492343338
LAPAN-A3                
1 41603U 16040E   22229.76443436  .00001002  00000+0  48366-4 0  9992
2 41603  97.2023 264.1146 0011825 311.0839 159.6085 15.20811325341353
BIROS                   
1 41604U 16040F   22229.10787522  .00003053  00000+0  12614-3 0  9992
2 41604  97.2062 271.2342 0009811 279.9811  80.0320 15.24693234341707
GAOFEN 3                
1 41727U 16049A   22229.79835558  .00000015  00000+0  17802-4 0  9995
2 41727  98.4087 237.2119 0001801  94.5501 265.5896 14.42216315316930
SKYSAT-C4               
1 41771U 16058B   22229.14426576  .00006617  00000+0  17848-3 0  9992
2 41771  97.1144 292.6067 0002101 160.9294 199.2031 15.38114096330284
SKYSAT-C5               
1 41772U 16058C   22229.46058959  .00004232  00000+0  16222-3 0  9990
2 41772  97.2608 291.3747 0001612  86.9398 273.2026 15.27039031329086
SKYSAT-C2               
1 41773U 16058D   22229.18875876  .00006638  00000+0  17892-3 0  9991
2 41773  97.1157 293.0395 0003031 102.5628 257.5957 15.38130153330316
SKYSAT-C3               
1 41774U 16058E   22228.85348225  .00008237  00000+0  19737-3 0  9995
2 41774  97.1149 293.4173 0002212 133.7860 226.3571 15.41662861330305
ALSAT 1B                
1 41785U 16059C   22229.75470540  .00000186  00000+0  38804-4 0  9996
2 41785  97.9054 272.1460 0010671  38.5837 321.6127 14.70080603314821
PATHFINDER 1            
1 41787U 16059E   22229.11016317  .00000321  00000+0  69605-4 0  9990
2 41787  97.9082 270.5702 0029995 337.2234  22.7637 14.64068062314614
SCATSAT 1               
1 41790U 16059H   22229.09068297  .00000109  00000+0  38828-4 0  9992
2 41790  98.3159 272.3480 0005752  31.7197 328.4343 14.50912332311867
