[{"OBJECT_NAME":"SENTINEL-3A","OBJECT_ID":"2016-011A","EPOCH":"2022-08-17T13:32:46.610304","MEAN_MOTION":14.26740744,"ECCENTRICITY":0.000118,"INCLINATION":98.6189,"RA_OF_ASC_NODE":295.9661,"ARG_OF_PERICENTER":99.799,"MEAN_ANOMALY":260.3323,"EPHEMERIS_TYPE":0,"CLASSIFICATION_TYPE":"U","NORAD_CAT_ID":41335,"ELEMENT_SET_NO":999,"REV_AT_EPOCH":33848,"BSTAR":4.2761e-5,"MEAN_MOTION_DOT":6.0e-7,"MEAN_MOTION_DDOT":0},{"OBJECT_NAME":"ZIYUAN 3-2 (ZY 3-2)","OBJECT_ID":"2016-033A","EPOCH":"2022-08-17T18:36:41.218848","MEAN_MOTION":15.21348202,"ECCENTRICITY":0.0005444,"INCLINATION":97.5323,"RA_OF_ASC_NODE":298.5155,"ARG_OF_PERICENTER":93.7458,"MEAN_ANOMALY":54.7649,"EPHEMERIS_TYPE":0,"CLASSIFICATION_TYPE":"U","NORAD_CAT_ID":41556,"ELEMENT_SET_NO":999,"REV_AT_EPOCH":34522,"BSTAR":0.00016087,"MEAN_MOTION_DOT":3.533e-5,"MEAN_MOTION_DDOT":0},{"OBJECT_NAME":"NUSAT-1 (FRESCO)","OBJECT_ID":"2016-033B","EPOCH":"2022-08-17T12:13:42.178080","MEAN_MOTION":15.35920331,"ECCENTRICITY":0.0011398,"INCLINATION":97.3907,"RA_OF_ASC_NODE":327.3695,"ARG_OF_PERICENTER":152.5902,"MEAN_ANOMALY":264.2046,"EPHEMERIS_TYPE":0,"CLASSIFICATION_TYPE":"U","NORAD_CAT_ID":41557,"ELEMENT_SET_NO":999,"REV_AT_EPOCH":34675,"BSTAR":0.00031084,"MEAN_MOTION_DOT":0.00010812,"MEAN_MOTION_DDOT":0},{"OBJECT_NAME":"NUSAT-2 (BATATA)","OBJECT_ID":"2016-033C","EPOCH":"2022-08-17T17:42:56.396736","MEAN_MOTION":15.37799084,"ECCENTRICITY":0.0011127,"INCLINATION":97.4113,"RA_OF_ASC_NODE":333.6421,"ARG_OF_PERICENTER":141.8316,"MEAN_ANOMALY":1.9445,"EPHEMERIS_TYPE":0,"CLASSIFICATION_TYPE":"U","NORAD_CAT_ID":41558,"ELEMENT_SET_NO":999,"REV_AT_EPOCH":34706,"BSTAR":0.00028472,"MEAN_MOTION_DOT":0.00010514,"MEAN_MOTION_DDOT":0},{"OBJECT_NAME":"CARTOSAT-2C","OBJECT_ID":"2016-040A","EPOCH":"2022-08-17T04:53:03.472224","MEAN_MOTION":15.19177411,"ECCENTRICITY":0.0013155,"INCLINATION":97.4805,"RA_OF_ASC_NODE":288.2608,"ARG_OF_PERICENTER":338.1622,"MEAN_ANOMALY":111.4678,"EPHEMERIS_TYPE":0,"CLASSIFICATION_TYPE":"U","NORAD_CAT_ID":41599,"ELEMENT_SET_NO":999,"REV_AT_EPOCH":34115,"BSTAR":0.00075881,"MEAN_MOTION_DOT":0.00015948,"MEAN_MOTION_DDOT":0},{"OBJECT_NAME":"SKYSAT-C1","OBJECT_ID":"2016-040C","EPOCH":"2022-08-17T04:24:07.059456","MEAN_MOTION":15.38099492,"ECCENTRICITY":0.0002368,"INCLINATION":97.1514,"RA_OF_ASC_NODE":303.0423,"ARG_OF_PERICENTER":116.1799,"MEAN_ANOMALY":243.969,"EPHEMERIS_TYPE":0,"CLASSIFICATION_TYPE":"U","NORAD_CAT_ID":41601,"ELEMENT_SET_NO":999,"REV_AT_EPOCH":34333,"BSTAR":0.00018452,"MEAN_MOTION_DOT":6.84e-5,"MEAN_MOTION_DDOT":0},{"OBJECT_NAME":"LAPAN-A3","OBJECT_ID":"2016-040E","EPOCH":"2022-08-17T18:20:47.128704","MEAN_MOTION":15.20811325,"ECCENTRICITY":0.0011825,"INCLINATION":97.2023,"RA_OF_ASC_NODE":264.1146,"ARG_OF_PERICENTER":311.0839,"MEAN_ANOMALY":159.6085,"EPHEMERIS_TYPE":0,"CLASSIFICATION_TYPE":"U","NORAD_CAT_ID":41603,"ELEMENT_SET_NO":999,"REV_AT_EPOCH":34135,"BSTAR":4.8366e-5,"MEAN_MOTION_DOT":1.002e-5,"MEAN_MOTION_DDOT":0},{"OBJECT_NAME":"BIROS","OBJECT_ID":"2016-040F","EPOCH":"2022-08-17T02:35:20.419008","MEAN_MOTION":15.24693234,"ECCENTRICITY":0.0009811,"INCLINATION":97.2062,"RA_OF_ASC_NODE":271.2342,"ARG_OF_PERICENTER":279.9811,"MEAN_ANOMALY":80.032,"EPHEMERIS_TYPE":0,"CLASSIFICATION_TYPE":"U","NORAD_CAT_ID":41604,"ELEMENT_SET_NO":999,"REV_AT_EPOCH":34170,"BSTAR":0.00012614,"MEAN_MOTION_DOT":3.053e-5,"MEAN_MOTION_DDOT":0},{"OBJECT_NAME":"GAOFEN 3","OBJECT_ID":"2016-049A","EPOCH":"2022-08-17T19:09:37.922112","MEAN_MOTION":14.42216315,"ECCENTRICITY":0.0001801,"INCLINATION":98.4087,"RA_OF_ASC_NODE":237.2119,"ARG_OF_PERICENTER":94.5501,"MEAN_ANOMALY":265.5896,"EPHEMERIS_TYPE":0,"CLASSIFICATION_TYPE":"U","NORAD_CAT_ID":41727,"ELEMENT_SET_NO":999,"REV_AT_EPOCH":31693,"BSTAR":1.7802e-5,"MEAN_MOTION_DOT":1.5e-7,"MEAN_MOTION_DDOT":0},{"OBJECT_NAME":"SKYSAT-C4","OBJECT_ID":"2016-058B","EPOCH":"2022-08-17T03:27:44.561664","MEAN_MOTION":15.38114096,"ECCENTRICITY":0.0002101,"INCLINATION":97.1144,"RA_OF_ASC_NODE":292.6067,"ARG_OF_PERICENTER":160.9294,"MEAN_ANOMALY":199.2031,"EPHEMERIS_TYPE":0,"CLASSIFICATION_TYPE":"U","NORAD_CAT_ID":41771,"ELEMENT_SET_NO":999,"REV_AT_EPOCH":33028,"BSTAR":0.00017848,"MEAN_MOTION_DOT":6.617e-5,"MEAN_MOTION_DDOT":0},{"OBJECT_NAME":"SKYSAT-C5","OBJECT_ID":"2016-058C","EPOCH":"2022-08-17T11:03:14.940576","MEAN_MOTION":15.27039031,"ECCENTRICITY":0.0001612,"INCLINATION":97.2608,"RA_OF_ASC_NODE":291.3747,"ARG_OF_PERICENTER":86.9398,"MEAN_ANOMALY":273.2026,"EPHEMERIS_TYPE":0,"CLASSIFICATION_TYPE":"U","NORAD_CAT_ID":41772,"ELEMENT_SET_NO":999,"REV_AT_EPOCH":32908,"BSTAR":0.00016222,"MEAN_MOTION_DOT":4.232e-5,"MEAN_MOTION_DDOT":0},{"OBJECT_NAME":"SKYSAT-C2","OBJECT_ID":"2016-058D","EPOCH":"2022-08-17T04:31:48.756864","MEAN_MOTION":15.38130153,"ECCENTRICITY":0.0003031,"INCLINATION":97.1157,"RA_OF_ASC_NODE":293.0395,"ARG_OF_PERICENTER":102.5628,"MEAN_ANOMALY":257.5957,"EPHEMERIS_TYPE":0,"CLASSIFICATION_TYPE":"U","NORAD_CAT_ID":41773,"ELEMENT_SET_NO":999,"REV_AT_EPOCH":33031,"BSTAR":0.00017892,"MEAN_MOTION_DOT":6.638e-5,"MEAN_MOTION_DDOT":0},{"OBJECT_NAME":"SKYSAT-C3","OBJECT_ID":"2016-058E","EPOCH":"2022-08-16T20:29:00.866400","MEAN_MOTION":15.41662861,"ECCENTRICITY":0.0002212,"INCLINATION":97.1149,"RA_OF_ASC_NODE":293.4173,"ARG_OF_PERICENTER":133.786,"MEAN_ANOMALY":226.3571,"EPHEMERIS_TYPE":0,"CLASSIFICATION_TYPE":"U","NORAD_CAT_ID":41774,"ELEMENT_SET_NO":999,"REV_AT_EPOCH":33030,"BSTAR":0.00019737,"MEAN_MOTION_DOT":8.237e-5,"MEAN_MOTION_DDOT":0},{"OBJECT_NAME":"ALSAT 1B","OBJECT_ID":"2016-059C","EPOCH":"2022-08-17T18:06:46.546560","MEAN_MOTION":14.70080603,"ECCENTRICITY":0.0010671,"INCLINATION":97.9054,"RA_OF_ASC_NODE":272.146,"ARG_OF_PERICENTER":38.5837,"MEAN_ANOMALY":321.6127,"EPHEMERIS_TYPE":0,"CLASSIFICATION_TYPE":"U","NORAD_CAT_ID":41785,"ELEMENT_SET_NO":999,"REV_AT_EPOCH":31482,"BSTAR":3.8804e-5,"MEAN_MOTION_DOT":1.86e-6,"MEAN_MOTION_DDOT":0},{"OBJECT_NAME":"PATHFINDER 1","OBJECT_ID":"2016-059E","EPOCH":"2022-08-17T02:38:38.097888","MEAN_MOTION":14.64068062,"ECCENTRICITY":0.0029995,"INCLINATION":97.9082,"RA_OF_ASC_NODE":270.5702,"ARG_OF_PERICENTER":337.2234,"MEAN_ANOMALY":22.7637,"EPHEMERIS_TYPE":0,"CLASSIFICATION_TYPE":"U","NORAD_CAT_ID":41787,"ELEMENT_SET_NO":999,"REV_AT_EPOCH":31461,"BSTAR":6.9605e-5,"MEAN_MOTION_DOT":3.21e-6,"MEAN_MOTION_DDOT":0},{"OBJECT_NAME":"SCATSAT 1","OBJECT_ID":"2016-059H","EPOCH":"2022-08-17T02:10:35.008608","MEAN_MOTION":14.50912332,"ECCENTRICITY":0.0005752,"INCLINATION":98.3159,"RA_OF_ASC_NODE":272.348,"ARG_OF_PERICENTER":31.7197,"MEAN_ANOMALY":328.4343,"EPHEMERIS_TYPE":0,"CLASSIFICATION_TYPE":"U","NORAD_CAT_ID":41790,"ELEMENT_SET_NO":999,"REV_AT_EPOCH":31186,"BSTAR":3.8828e-5,"MEAN_MOTION_DOT":1.09e-6,"MEAN_MOTION_DDOT":0}]